{"type":"FeatureCollection","features":[{"type":"Feature","id":"IN-WB-PURULIA-W01","properties":{"state":"West Bengal","district":"Purulia","municipality_name":"Purulia Municipality","municipality_type":"municipal_council","ward_number":1,"ward_name":null,"year_delimited":null,"source_url":"https://github.com/archiboltmusk/Purulia/blob/7f6ef3cdc195b5ebd6fd6ecac9ad10fabd819af8/purulia_wards.geojson","license":"MIT","country":"IN"},"geometry":{"type":"Polygon","coordinates":[[[86.360507,23.340954],[86.360555,23.340937],[86.360572,23.340931],[86.360606,23.340876],[86.361688,23.340931],[86.362769,23.340931],[86.364272,23.339938],[86.364319,23.339919],[86.364452,23.339828],[86.367192,23.338356],[86.367517,23.338172],[86.367284,23.336119],[86.367276,23.336076],[86.367279,23.336075],[86.367306,23.336068],[86.367334,23.336061],[86.368117,23.335855],[86.368387,23.336053],[86.368839,23.335662],[86.36918,23.335326],[86.369259,23.335248],[86.369274,23.335272],[86.369279,23.33528],[86.369313,23.33525],[86.369318,23.335247],[86.369384,23.33521],[86.36948,23.335155],[86.370818,23.334658],[86.370794,23.334743],[86.370787,23.334755],[86.370732,23.334787],[86.369319,23.335248],[86.370544,23.337253],[86.370588,23.337341],[86.370678,23.337519],[86.371091,23.338622],[86.37189,23.340622],[86.371815,23.340686],[86.371723,23.340766],[86.36953,23.342725],[86.368246,23.342966],[86.366916,23.343193],[86.364612,23.343193],[86.363971,23.343083],[86.361748,23.343579],[86.359284,23.343193],[86.359271,23.343213],[86.359244,23.343208],[86.359217,23.343203],[86.359673,23.342449],[86.359998,23.341853],[86.360484,23.340962],[86.360507,23.340954]]]}},{"type":"Feature","id":"IN-WB-PURULIA-W02","properties":{"state":"West Bengal","district":"Purulia","municipality_name":"Purulia Municipality","municipality_type":"municipal_council","ward_number":2,"ward_name":null,"year_delimited":null,"source_url":"https://github.com/archiboltmusk/Purulia/blob/7f6ef3cdc195b5ebd6fd6ecac9ad10fabd819af8/purulia_wards.geojson","license":"MIT","country":"IN"},"geometry":{"type":"Polygon","coordinates":[[[86.365697,23.332784],[86.365331,23.332134],[86.365327,23.332128],[86.365323,23.332119],[86.365302,23.332082],[86.365365,23.332073],[86.365353,23.332048],[86.365359,23.332048],[86.365345,23.332],[86.365487,23.33199],[86.365397,23.332051],[86.3655,23.33206],[86.366044,23.332103],[86.366735,23.33213],[86.366765,23.33213],[86.367238,23.335521],[86.367306,23.336068],[86.367279,23.336075],[86.367276,23.336076],[86.367284,23.336119],[86.367517,23.338172],[86.367192,23.338356],[86.364452,23.339828],[86.364319,23.339919],[86.364272,23.339938],[86.362769,23.340931],[86.361688,23.340931],[86.360606,23.340876],[86.360572,23.340931],[86.360555,23.340937],[86.360507,23.340954],[86.360529,23.340921],[86.360601,23.340813],[86.361127,23.340211],[86.361778,23.339523],[86.362019,23.338197],[86.362115,23.337445],[86.362469,23.335524],[86.36364,23.335337],[86.363944,23.335326],[86.36671,23.333393],[86.366393,23.332812],[86.366368,23.332766],[86.366349,23.33273],[86.365697,23.332784]],[[86.365376,23.332096],[86.365353,23.332103],[86.365379,23.332103],[86.365376,23.332096]]]}},{"type":"Feature","id":"IN-WB-PURULIA-W03","properties":{"state":"West Bengal","district":"Purulia","municipality_name":"Purulia Municipality","municipality_type":"municipal_council","ward_number":3,"ward_name":null,"year_delimited":null,"source_url":"https://github.com/archiboltmusk/Purulia/blob/7f6ef3cdc195b5ebd6fd6ecac9ad10fabd819af8/purulia_wards.geojson","license":"MIT","country":"IN"},"geometry":{"type":"Polygon","coordinates":[[[86.35109,23.343527],[86.351374,23.343167],[86.352103,23.342039],[86.352516,23.3414],[86.352456,23.340627],[86.354321,23.336485],[86.355414,23.335535],[86.356314,23.334753],[86.356531,23.334538],[86.357285,23.333684],[86.357318,23.333655],[86.359666,23.332051],[86.359748,23.332019],[86.359767,23.332012],[86.35983,23.331987],[86.361429,23.332094],[86.362019,23.332123],[86.365147,23.331957],[86.365153,23.331966],[86.365688,23.332785],[86.365697,23.332784],[86.366349,23.33273],[86.366368,23.332766],[86.366393,23.332812],[86.36671,23.333393],[86.363944,23.335326],[86.36364,23.335337],[86.362469,23.335524],[86.362115,23.337445],[86.362019,23.338197],[86.361778,23.339523],[86.361127,23.340211],[86.360601,23.340813],[86.360529,23.340921],[86.360507,23.340954],[86.360484,23.340962],[86.359998,23.341853],[86.359673,23.342449],[86.359217,23.343203],[86.359244,23.343208],[86.358785,23.343949],[86.358708,23.3441],[86.358443,23.344517],[86.358202,23.344683],[86.358579,23.345967],[86.358591,23.346039],[86.355343,23.345983],[86.352577,23.345818],[86.350231,23.345652],[86.349088,23.345762],[86.350592,23.344161],[86.35109,23.343527]]]}},{"type":"Feature","id":"IN-WB-PURULIA-W04","properties":{"state":"West Bengal","district":"Purulia","municipality_name":"Purulia Municipality","municipality_type":"municipal_council","ward_number":4,"ward_name":null,"year_delimited":null,"source_url":"https://github.com/archiboltmusk/Purulia/blob/7f6ef3cdc195b5ebd6fd6ecac9ad10fabd819af8/purulia_wards.geojson","license":"MIT","country":"IN"},"geometry":{"type":"Polygon","coordinates":[[[86.359832,23.33196],[86.361429,23.332094],[86.35983,23.331987],[86.359767,23.332012],[86.359748,23.332019],[86.359666,23.332051],[86.357318,23.333655],[86.357285,23.333684],[86.356531,23.334538],[86.356314,23.334753],[86.355414,23.335535],[86.354321,23.336485],[86.352456,23.340627],[86.352516,23.3414],[86.352103,23.342039],[86.351374,23.343167],[86.35109,23.343527],[86.350171,23.344327],[86.34963,23.343278],[86.347224,23.336927],[86.345119,23.331957],[86.344758,23.331018],[86.347585,23.329858],[86.348727,23.327539],[86.349283,23.328159],[86.349466,23.328363],[86.34999,23.328257],[86.350772,23.328754],[86.351795,23.328864],[86.352156,23.329417],[86.353058,23.330521],[86.353557,23.332202],[86.3539,23.332067],[86.35401,23.332107],[86.35408,23.332067],[86.354416,23.332257],[86.354802,23.332399],[86.358155,23.332136],[86.359734,23.331957],[86.359645,23.332019],[86.359734,23.332012],[86.359832,23.33196]]]}},{"type":"Feature","id":"IN-WB-PURULIA-W05","properties":{"state":"West Bengal","district":"Purulia","municipality_name":"Purulia Municipality","municipality_type":"municipal_council","ward_number":5,"ward_name":null,"year_delimited":null,"source_url":"https://github.com/archiboltmusk/Purulia/blob/7f6ef3cdc195b5ebd6fd6ecac9ad10fabd819af8/purulia_wards.geojson","license":"MIT","country":"IN"},"geometry":{"type":"Polygon","coordinates":[[[86.35323,23.321762],[86.353661,23.322059],[86.354802,23.322458],[86.35483,23.322485],[86.354922,23.322513],[86.356364,23.323781],[86.356366,23.323783],[86.358001,23.324412],[86.358054,23.324412],[86.359188,23.324204],[86.359222,23.324197],[86.359524,23.325282],[86.359608,23.325446],[86.36025,23.3261],[86.360275,23.326158],[86.360275,23.326158],[86.360337,23.326188],[86.36034,23.326195],[86.360355,23.32623],[86.360337,23.326226],[86.360486,23.327042],[86.360696,23.32787],[86.361264,23.329062],[86.361538,23.329582],[86.361521,23.329602],[86.361538,23.329637],[86.360822,23.330568],[86.360876,23.331405],[86.360869,23.331409],[86.359982,23.33188],[86.359832,23.33196],[86.359734,23.332012],[86.359645,23.332019],[86.359734,23.331957],[86.358155,23.332136],[86.354802,23.332399],[86.354416,23.332257],[86.35408,23.332067],[86.35401,23.332107],[86.3539,23.332067],[86.353557,23.332202],[86.353058,23.330521],[86.352156,23.329417],[86.351795,23.328864],[86.350772,23.328754],[86.34999,23.328257],[86.349466,23.328363],[86.349283,23.328159],[86.348788,23.327539],[86.352396,23.321188],[86.35323,23.321762]]]}},{"type":"Feature","id":"IN-WB-PURULIA-W06","properties":{"state":"West Bengal","district":"Purulia","municipality_name":"Purulia Municipality","municipality_type":"municipal_council","ward_number":6,"ward_name":null,"year_delimited":null,"source_url":"https://github.com/archiboltmusk/Purulia/blob/7f6ef3cdc195b5ebd6fd6ecac9ad10fabd819af8/purulia_wards.geojson","license":"MIT","country":"IN"},"geometry":{"type":"Polygon","coordinates":[[[86.352396,23.321077],[86.354441,23.315554],[86.356245,23.311688],[86.35823,23.311025],[86.35823,23.311135],[86.35817,23.313566],[86.35835,23.315388],[86.358236,23.315885],[86.358125,23.316374],[86.35811,23.316438],[86.358763,23.318429],[86.359192,23.319807],[86.359252,23.320521],[86.359252,23.322071],[86.359917,23.323712],[86.360117,23.324271],[86.360166,23.324452],[86.360194,23.324891],[86.360197,23.324914],[86.3602,23.324938],[86.360179,23.32494],[86.360335,23.326158],[86.360267,23.326082],[86.360271,23.32612],[86.36025,23.3261],[86.359608,23.325446],[86.359524,23.325282],[86.359222,23.324197],[86.359188,23.324204],[86.358054,23.324412],[86.358001,23.324412],[86.356366,23.323783],[86.356364,23.323781],[86.354922,23.322513],[86.35483,23.322485],[86.354802,23.322458],[86.353661,23.322059],[86.35323,23.321762],[86.352396,23.321077]]]}},{"type":"Feature","id":"IN-WB-PURULIA-W07","properties":{"state":"West Bengal","district":"Purulia","municipality_name":"Purulia Municipality","municipality_type":"municipal_council","ward_number":7,"ward_name":null,"year_delimited":null,"source_url":"https://github.com/archiboltmusk/Purulia/blob/7f6ef3cdc195b5ebd6fd6ecac9ad10fabd819af8/purulia_wards.geojson","license":"MIT","country":"IN"},"geometry":{"type":"Polygon","coordinates":[[[86.364841,23.321717],[86.364881,23.32172],[86.364846,23.321742],[86.364843,23.321743],[86.36256,23.324667],[86.362259,23.324695],[86.360218,23.324912],[86.360197,23.324914],[86.360194,23.324891],[86.360166,23.324452],[86.360117,23.324271],[86.359917,23.323712],[86.359252,23.322071],[86.359252,23.320521],[86.359192,23.319807],[86.358763,23.318429],[86.35811,23.316438],[86.358125,23.316374],[86.358236,23.315885],[86.35835,23.315388],[86.35817,23.313566],[86.35823,23.311135],[86.360515,23.311632],[86.36262,23.311853],[86.363034,23.312936],[86.363402,23.314063],[86.363584,23.315068],[86.364362,23.319352],[86.364786,23.321685],[86.364836,23.321689],[86.364841,23.321717]]]}},{"type":"Feature","id":"IN-WB-PURULIA-W08","properties":{"state":"West Bengal","district":"Purulia","municipality_name":"Purulia Municipality","municipality_type":"municipal_council","ward_number":8,"ward_name":null,"year_delimited":null,"source_url":"https://github.com/archiboltmusk/Purulia/blob/7f6ef3cdc195b5ebd6fd6ecac9ad10fabd819af8/purulia_wards.geojson","license":"MIT","country":"IN"},"geometry":{"type":"Polygon","coordinates":[[[86.360197,23.324914],[86.360218,23.324912],[86.362259,23.324695],[86.36256,23.324667],[86.364843,23.321743],[86.364846,23.321742],[86.364881,23.32172],[86.366676,23.321849],[86.367669,23.321935],[86.367669,23.321935],[86.367382,23.324116],[86.367378,23.324235],[86.367372,23.324115],[86.366229,23.325716],[86.366222,23.325723],[86.366101,23.325875],[86.363714,23.328543],[86.363706,23.328551],[86.363697,23.328537],[86.363655,23.328472],[86.36354,23.328233],[86.362921,23.326766],[86.362355,23.326648],[86.360922,23.326279],[86.360355,23.326197],[86.36034,23.326195],[86.360337,23.326188],[86.360275,23.326158],[86.360275,23.326158],[86.36025,23.3261],[86.360271,23.32612],[86.360267,23.326082],[86.360335,23.326158],[86.360179,23.32494],[86.3602,23.324938],[86.360197,23.324914]]]}},{"type":"Feature","id":"IN-WB-PURULIA-W09","properties":{"state":"West Bengal","district":"Purulia","municipality_name":"Purulia Municipality","municipality_type":"municipal_council","ward_number":9,"ward_name":null,"year_delimited":null,"source_url":"https://github.com/archiboltmusk/Purulia/blob/7f6ef3cdc195b5ebd6fd6ecac9ad10fabd819af8/purulia_wards.geojson","license":"MIT","country":"IN"},"geometry":{"type":"Polygon","coordinates":[[[86.371957,23.319613],[86.371462,23.320193],[86.370819,23.320784],[86.370319,23.321298],[86.368154,23.321464],[86.368033,23.321906],[86.367985,23.321906],[86.367973,23.321961],[86.367669,23.321935],[86.367669,23.321935],[86.367669,23.321935],[86.366676,23.321849],[86.364881,23.32172],[86.364841,23.321717],[86.364836,23.321689],[86.364786,23.321685],[86.364362,23.319352],[86.363584,23.315068],[86.363402,23.314063],[86.363034,23.312936],[86.362681,23.311853],[86.364665,23.311632],[86.367071,23.310252],[86.369176,23.308871],[86.371161,23.308263],[86.371341,23.309423],[86.372003,23.31235],[86.373085,23.316051],[86.373627,23.317929],[86.373206,23.31815],[86.371957,23.319613]]]}},{"type":"Feature","id":"IN-WB-PURULIA-W10","properties":{"state":"West Bengal","district":"Purulia","municipality_name":"Purulia Municipality","municipality_type":"municipal_council","ward_number":10,"ward_name":null,"year_delimited":null,"source_url":"https://github.com/archiboltmusk/Purulia/blob/7f6ef3cdc195b5ebd6fd6ecac9ad10fabd819af8/purulia_wards.geojson","license":"MIT","country":"IN"},"geometry":{"type":"Polygon","coordinates":[[[86.367408,23.324257],[86.367437,23.324239],[86.368695,23.323452],[86.37041,23.323627],[86.370637,23.32365],[86.37086,23.323673],[86.371123,23.323018],[86.371281,23.322624],[86.371246,23.322528],[86.37086,23.321464],[86.371737,23.32172],[86.372131,23.321835],[86.372183,23.32185],[86.375792,23.321464],[86.376318,23.322216],[86.376273,23.322237],[86.375672,23.323618],[86.375835,23.324766],[86.374651,23.325623],[86.373883,23.326093],[86.373868,23.326097],[86.372784,23.326002],[86.372681,23.326004],[86.3708,23.326213],[86.368115,23.326633],[86.368054,23.326642],[86.367994,23.326652],[86.367973,23.326655],[86.367926,23.326547],[86.367576,23.325744],[86.367492,23.325551],[86.367491,23.325533],[86.367458,23.325384],[86.367408,23.324257]]]}},{"type":"Feature","id":"IN-WB-PURULIA-W11","properties":{"state":"West Bengal","district":"Purulia","municipality_name":"Purulia Municipality","municipality_type":"municipal_council","ward_number":11,"ward_name":null,"year_delimited":null,"source_url":"https://github.com/archiboltmusk/Purulia/blob/7f6ef3cdc195b5ebd6fd6ecac9ad10fabd819af8/purulia_wards.geojson","license":"MIT","country":"IN"},"geometry":{"type":"Polygon","coordinates":[[[86.373867,23.326103],[86.373873,23.3261],[86.373875,23.326098],[86.373868,23.326097],[86.373883,23.326093],[86.374651,23.325623],[86.375835,23.324766],[86.375672,23.323618],[86.376273,23.322237],[86.376318,23.322216],[86.37632,23.322215],[86.376664,23.322057],[86.377656,23.321519],[86.380503,23.315891],[86.381188,23.314495],[86.381265,23.314339],[86.386257,23.317542],[86.388542,23.322182],[86.390286,23.325385],[86.390046,23.325772],[86.389986,23.326379],[86.390828,23.326821],[86.390669,23.327113],[86.390587,23.327263],[86.389565,23.327428],[86.388952,23.327377],[86.38758,23.327263],[86.386316,23.327107],[86.38618,23.32709],[86.383911,23.326876],[86.381686,23.327263],[86.380885,23.327698],[86.380243,23.328091],[86.380172,23.32803],[86.380127,23.328012],[86.380146,23.328007],[86.38012,23.327985],[86.378112,23.326255],[86.377188,23.325551],[86.376841,23.325551],[86.376284,23.325607],[86.37602,23.325664],[86.374947,23.325869],[86.374045,23.326065],[86.37404,23.326065],[86.374044,23.326062],[86.373956,23.326083],[86.373902,23.326095],[86.373884,23.326099],[86.373867,23.326103]]]}},{"type":"Feature","id":"IN-WB-PURULIA-W12","properties":{"state":"West Bengal","district":"Purulia","municipality_name":"Purulia Municipality","municipality_type":"municipal_council","ward_number":12,"ward_name":null,"year_delimited":null,"source_url":"https://github.com/archiboltmusk/Purulia/blob/7f6ef3cdc195b5ebd6fd6ecac9ad10fabd819af8/purulia_wards.geojson","license":"MIT","country":"IN"},"geometry":{"type":"Polygon","coordinates":[[[86.37247,23.327413],[86.372771,23.327137],[86.373867,23.326103],[86.373884,23.326099],[86.373902,23.326095],[86.373905,23.326095],[86.373988,23.326103],[86.374036,23.326069],[86.374045,23.326065],[86.374947,23.325869],[86.37602,23.325664],[86.376284,23.325607],[86.376841,23.325551],[86.377188,23.325551],[86.378112,23.326255],[86.38012,23.327985],[86.380146,23.328007],[86.380127,23.328012],[86.379301,23.328252],[86.37928,23.328257],[86.378389,23.32853],[86.377355,23.328459],[86.376754,23.328367],[86.376116,23.328474],[86.376093,23.328478],[86.376105,23.328504],[86.37483,23.328809],[86.374168,23.328919],[86.373812,23.328998],[86.372664,23.329251],[86.372612,23.329215],[86.372664,23.329196],[86.372003,23.328588],[86.372003,23.328284],[86.37213,23.327876],[86.372484,23.327428],[86.372434,23.327446],[86.37247,23.327413]]]}},{"type":"Feature","id":"IN-WB-PURULIA-W13","properties":{"state":"West Bengal","district":"Purulia","municipality_name":"Purulia Municipality","municipality_type":"municipal_council","ward_number":13,"ward_name":null,"year_delimited":null,"source_url":"https://github.com/archiboltmusk/Purulia/blob/7f6ef3cdc195b5ebd6fd6ecac9ad10fabd819af8/purulia_wards.geojson","license":"MIT","country":"IN"},"geometry":{"type":"Polygon","coordinates":[[[86.36034,23.326195],[86.360355,23.326197],[86.360922,23.326279],[86.362355,23.326648],[86.362921,23.326766],[86.36354,23.328233],[86.363655,23.328472],[86.363697,23.328537],[86.363706,23.328551],[86.363714,23.328564],[86.36371,23.328568],[86.364218,23.329243],[86.364891,23.330036],[86.364937,23.330071],[86.364955,23.330097],[86.364962,23.330141],[86.365203,23.330297],[86.365207,23.3303],[86.365594,23.330453],[86.365724,23.330441],[86.366049,23.330355],[86.366483,23.330444],[86.366662,23.330458],[86.367071,23.330411],[86.367715,23.330284],[86.367673,23.330245],[86.367882,23.330158],[86.367853,23.330079],[86.368286,23.329814],[86.368394,23.329748],[86.368394,23.329541],[86.368394,23.329417],[86.368755,23.329417],[86.369838,23.328699],[86.371281,23.32787],[86.372384,23.327465],[86.37247,23.327413],[86.372434,23.327446],[86.372484,23.327428],[86.37213,23.327876],[86.372003,23.328284],[86.372003,23.328588],[86.372664,23.329196],[86.372612,23.329215],[86.372664,23.329251],[86.373812,23.328998],[86.372666,23.329258],[86.372619,23.329245],[86.372589,23.329253],[86.372589,23.329254],[86.372585,23.329272],[86.372583,23.329285],[86.372564,23.329289],[86.372581,23.329302],[86.372577,23.329326],[86.372564,23.329316],[86.37321,23.329806],[86.373229,23.329853],[86.372564,23.329344],[86.371633,23.329616],[86.371242,23.32973],[86.370221,23.329896],[86.370254,23.329953],[86.36962,23.330006],[86.367036,23.331606],[86.366872,23.331655],[86.366831,23.331681],[86.366709,23.331702],[86.365487,23.33199],[86.365345,23.332],[86.365359,23.332048],[86.365353,23.332048],[86.365365,23.332073],[86.365302,23.332082],[86.365323,23.332119],[86.365327,23.332128],[86.365331,23.332134],[86.365697,23.332784],[86.365688,23.332785],[86.365153,23.331966],[86.365147,23.331957],[86.362019,23.332123],[86.361429,23.332094],[86.359832,23.33196],[86.359982,23.33188],[86.360869,23.331409],[86.360876,23.331405],[86.360822,23.330568],[86.361538,23.329637],[86.361521,23.329602],[86.361538,23.329582],[86.361264,23.329062],[86.360696,23.32787],[86.360486,23.327042],[86.360337,23.326226],[86.360355,23.32623],[86.36034,23.326195]]]}},{"type":"Feature","id":"IN-WB-PURULIA-W14","properties":{"state":"West Bengal","district":"Purulia","municipality_name":"Purulia Municipality","municipality_type":"municipal_council","ward_number":14,"ward_name":null,"year_delimited":null,"source_url":"https://github.com/archiboltmusk/Purulia/blob/7f6ef3cdc195b5ebd6fd6ecac9ad10fabd819af8/purulia_wards.geojson","license":"MIT","country":"IN"},"geometry":{"type":"Polygon","coordinates":[[[86.364955,23.330097],[86.364966,23.330079],[86.36499,23.330065],[86.368344,23.328108],[86.368515,23.328028],[86.36878,23.327871],[86.368054,23.326642],[86.368115,23.326633],[86.3708,23.326213],[86.372681,23.326004],[86.372784,23.326002],[86.373868,23.326097],[86.373875,23.326098],[86.373873,23.3261],[86.373867,23.326103],[86.372771,23.327137],[86.37247,23.327413],[86.372384,23.327465],[86.371281,23.32787],[86.369838,23.328699],[86.368755,23.329417],[86.368394,23.329417],[86.368394,23.329541],[86.368394,23.329748],[86.368286,23.329814],[86.367853,23.330079],[86.367882,23.330158],[86.367673,23.330245],[86.367715,23.330284],[86.367071,23.330411],[86.366662,23.330458],[86.366483,23.330444],[86.366049,23.330355],[86.365724,23.330441],[86.365594,23.330453],[86.365207,23.3303],[86.365203,23.330297],[86.364962,23.330141],[86.364955,23.330097]]]}},{"type":"Feature","id":"IN-WB-PURULIA-W15","properties":{"state":"West Bengal","district":"Purulia","municipality_name":"Purulia Municipality","municipality_type":"municipal_council","ward_number":15,"ward_name":null,"year_delimited":null,"source_url":"https://github.com/archiboltmusk/Purulia/blob/7f6ef3cdc195b5ebd6fd6ecac9ad10fabd819af8/purulia_wards.geojson","license":"MIT","country":"IN"},"geometry":{"type":"Polygon","coordinates":[[[86.367378,23.324235],[86.367372,23.32428],[86.36738,23.324275],[86.367408,23.324257],[86.367458,23.325384],[86.367491,23.325533],[86.367492,23.325551],[86.367576,23.325744],[86.367926,23.326547],[86.367973,23.326655],[86.367994,23.326652],[86.368054,23.326642],[86.36878,23.327871],[86.368515,23.328028],[86.368344,23.328108],[86.36499,23.330065],[86.364966,23.330079],[86.364955,23.330097],[86.364937,23.330071],[86.364891,23.330036],[86.364218,23.329243],[86.36371,23.328568],[86.363714,23.328564],[86.363706,23.328551],[86.363714,23.328543],[86.366101,23.325875],[86.366222,23.325723],[86.366229,23.325716],[86.367372,23.324115],[86.367378,23.324235]]]}},{"type":"Feature","id":"IN-WB-PURULIA-W16","properties":{"state":"West Bengal","district":"Purulia","municipality_name":"Purulia Municipality","municipality_type":"municipal_council","ward_number":16,"ward_name":null,"year_delimited":null,"source_url":"https://github.com/archiboltmusk/Purulia/blob/7f6ef3cdc195b5ebd6fd6ecac9ad10fabd819af8/purulia_wards.geojson","license":"MIT","country":"IN"},"geometry":{"type":"Polygon","coordinates":[[[86.390669,23.327113],[86.390888,23.326987],[86.391489,23.327649],[86.391489,23.328202],[86.391008,23.328754],[86.390527,23.329527],[86.390587,23.330631],[86.390166,23.331626],[86.389745,23.331902],[86.387219,23.332454],[86.386858,23.333227],[86.386076,23.334276],[86.386016,23.334884],[86.385355,23.335712],[86.384753,23.336043],[86.384212,23.336596],[86.383731,23.337314],[86.383009,23.338032],[86.382949,23.338639],[86.382588,23.339578],[86.382227,23.340185],[86.381566,23.340517],[86.381265,23.341566],[86.381096,23.34158],[86.380603,23.341621],[86.380243,23.341014],[86.380268,23.340844],[86.380363,23.340185],[86.380363,23.339935],[86.380363,23.339357],[86.37928,23.338363],[86.37928,23.338323],[86.37928,23.337884],[86.37928,23.337258],[86.378919,23.337038],[86.378934,23.336976],[86.379001,23.336703],[86.37904,23.336541],[86.377512,23.334944],[86.37734,23.334782],[86.377346,23.334772],[86.377295,23.334718],[86.377476,23.334442],[86.376273,23.333393],[86.376288,23.333369],[86.376264,23.333336],[86.377441,23.331569],[86.377476,23.331515],[86.376105,23.328504],[86.376093,23.328478],[86.376116,23.328474],[86.376754,23.328367],[86.377355,23.328459],[86.378389,23.32853],[86.37928,23.328257],[86.379301,23.328252],[86.380127,23.328012],[86.380172,23.32803],[86.380243,23.328091],[86.380885,23.327698],[86.381686,23.327263],[86.383911,23.326876],[86.38618,23.32709],[86.386316,23.327107],[86.38758,23.327263],[86.388952,23.327377],[86.389565,23.327428],[86.390587,23.327263],[86.390669,23.327113]]]}},{"type":"Feature","id":"IN-WB-PURULIA-W17","properties":{"state":"West Bengal","district":"Purulia","municipality_name":"Purulia Municipality","municipality_type":"municipal_council","ward_number":17,"ward_name":null,"year_delimited":null,"source_url":"https://github.com/archiboltmusk/Purulia/blob/7f6ef3cdc195b5ebd6fd6ecac9ad10fabd819af8/purulia_wards.geojson","license":"MIT","country":"IN"},"geometry":{"type":"Polygon","coordinates":[[[86.373229,23.329853],[86.37321,23.329806],[86.372564,23.329316],[86.372577,23.329326],[86.372581,23.329302],[86.372564,23.329289],[86.372583,23.329285],[86.372585,23.329272],[86.372589,23.329254],[86.372589,23.329253],[86.372619,23.329245],[86.372666,23.329258],[86.373812,23.328998],[86.374168,23.328919],[86.37483,23.328809],[86.376105,23.328504],[86.377476,23.331515],[86.377441,23.331569],[86.376264,23.333336],[86.37624,23.333303],[86.375208,23.331882],[86.375159,23.331897],[86.375079,23.331922],[86.374667,23.332048],[86.373706,23.331827],[86.372504,23.332479],[86.372474,23.332495],[86.372474,23.332103],[86.372469,23.332062],[86.372339,23.331846],[86.371963,23.331386],[86.372152,23.331354],[86.372624,23.331275],[86.373225,23.330774],[86.373258,23.330297],[86.373229,23.329853]]]}},{"type":"Feature","id":"IN-WB-PURULIA-W18","properties":{"state":"West Bengal","district":"Purulia","municipality_name":"Purulia Municipality","municipality_type":"municipal_council","ward_number":18,"ward_name":null,"year_delimited":null,"source_url":"https://github.com/archiboltmusk/Purulia/blob/7f6ef3cdc195b5ebd6fd6ecac9ad10fabd819af8/purulia_wards.geojson","license":"MIT","country":"IN"},"geometry":{"type":"Polygon","coordinates":[[[86.37734,23.334782],[86.377191,23.334641],[86.374848,23.338062],[86.37189,23.340622],[86.371091,23.338622],[86.370678,23.337519],[86.370588,23.337341],[86.370544,23.337253],[86.369319,23.335248],[86.370721,23.334792],[86.370796,23.33475],[86.370885,23.33476],[86.370942,23.33475],[86.372384,23.334645],[86.372384,23.332544],[86.372444,23.332511],[86.372474,23.332495],[86.372504,23.332479],[86.373706,23.331827],[86.374667,23.332048],[86.375079,23.331922],[86.375159,23.331897],[86.375208,23.331882],[86.37624,23.333303],[86.376264,23.333336],[86.376288,23.333369],[86.376273,23.333393],[86.377476,23.334442],[86.377295,23.334718],[86.377346,23.334772],[86.37734,23.334782]]]}},{"type":"Feature","id":"IN-WB-PURULIA-W19","properties":{"state":"West Bengal","district":"Purulia","municipality_name":"Purulia Municipality","municipality_type":"municipal_council","ward_number":19,"ward_name":null,"year_delimited":null,"source_url":"https://github.com/archiboltmusk/Purulia/blob/7f6ef3cdc195b5ebd6fd6ecac9ad10fabd819af8/purulia_wards.geojson","license":"MIT","country":"IN"},"geometry":{"type":"Polygon","coordinates":[[[86.370254,23.329953],[86.370221,23.329896],[86.371242,23.32973],[86.371633,23.329616],[86.372564,23.329344],[86.373229,23.329853],[86.373258,23.330297],[86.373225,23.330774],[86.372624,23.331275],[86.372152,23.331354],[86.371963,23.331386],[86.372339,23.331846],[86.372469,23.332062],[86.372474,23.332103],[86.372474,23.332495],[86.372444,23.332511],[86.372384,23.332544],[86.372384,23.334645],[86.370942,23.33475],[86.370885,23.33476],[86.370793,23.334748],[86.370817,23.334661],[86.370851,23.33464],[86.370913,23.334619],[86.371002,23.334586],[86.371087,23.333886],[86.371122,23.333593],[86.370581,23.333538],[86.370487,23.333416],[86.370281,23.333151],[86.370341,23.332489],[86.370322,23.332419],[86.370232,23.33209],[86.370161,23.331827],[86.370221,23.331331],[86.370432,23.33122],[86.370603,23.33113],[86.370641,23.33111],[86.370761,23.330724],[86.370281,23.329951],[86.370254,23.329953]]]}},{"type":"Feature","id":"IN-WB-PURULIA-W20","properties":{"state":"West Bengal","district":"Purulia","municipality_name":"Purulia Municipality","municipality_type":"municipal_council","ward_number":20,"ward_name":null,"year_delimited":null,"source_url":"https://github.com/archiboltmusk/Purulia/blob/7f6ef3cdc195b5ebd6fd6ecac9ad10fabd819af8/purulia_wards.geojson","license":"MIT","country":"IN"},"geometry":{"type":"Polygon","coordinates":[[[86.370254,23.329953],[86.370281,23.329951],[86.370761,23.330724],[86.370641,23.33111],[86.370603,23.33113],[86.370432,23.33122],[86.370221,23.331331],[86.370161,23.331827],[86.370232,23.33209],[86.370322,23.332419],[86.370341,23.332489],[86.370281,23.333151],[86.370487,23.333416],[86.370581,23.333538],[86.371122,23.333593],[86.371087,23.333886],[86.371002,23.334586],[86.370913,23.334619],[86.36948,23.335155],[86.369384,23.33521],[86.369318,23.335247],[86.369313,23.33525],[86.369279,23.33528],[86.369274,23.335272],[86.369259,23.335248],[86.36918,23.335326],[86.368839,23.335662],[86.368387,23.336053],[86.368117,23.335855],[86.367334,23.336061],[86.367306,23.336068],[86.367238,23.335521],[86.366765,23.33213],[86.366735,23.33213],[86.366044,23.332103],[86.3655,23.33206],[86.365397,23.332051],[86.365487,23.33199],[86.366709,23.331702],[86.366831,23.331681],[86.366872,23.331655],[86.367036,23.331606],[86.36962,23.330006],[86.370254,23.329953]]]}},{"type":"Feature","id":"IN-WB-PURULIA-W21","properties":{"state":"West Bengal","district":"Purulia","municipality_name":"Purulia Municipality","municipality_type":"municipal_council","ward_number":21,"ward_name":null,"year_delimited":null,"source_url":"https://github.com/archiboltmusk/Purulia/blob/7f6ef3cdc195b5ebd6fd6ecac9ad10fabd819af8/purulia_wards.geojson","license":"MIT","country":"IN"},"geometry":{"type":"Polygon","coordinates":[[[86.358579,23.345967],[86.358202,23.344683],[86.358443,23.344517],[86.358708,23.3441],[86.358785,23.343949],[86.359244,23.343208],[86.359271,23.343213],[86.359284,23.343193],[86.361748,23.343579],[86.363971,23.343083],[86.364612,23.343193],[86.366916,23.343193],[86.368246,23.342966],[86.36953,23.342725],[86.371723,23.340766],[86.371815,23.340686],[86.37189,23.340622],[86.374848,23.338062],[86.377191,23.334641],[86.37734,23.334782],[86.377512,23.334944],[86.37904,23.336541],[86.379001,23.336703],[86.378934,23.336976],[86.378919,23.337038],[86.37928,23.337258],[86.37928,23.337884],[86.37928,23.338323],[86.37928,23.338363],[86.380363,23.339357],[86.380363,23.339935],[86.380363,23.340185],[86.380268,23.340844],[86.380243,23.341014],[86.380603,23.341621],[86.381096,23.34158],[86.381037,23.343635],[86.379715,23.345235],[86.378814,23.346338],[86.377432,23.346173],[86.374367,23.346062],[86.3701,23.346117],[86.36956,23.346393],[86.366976,23.345841],[86.363971,23.346007],[86.358623,23.346117],[86.358579,23.345967]]]}},{"type":"Feature","id":"IN-WB-PURULIA-W22","properties":{"state":"West Bengal","district":"Purulia","municipality_name":"Purulia Municipality","municipality_type":"municipal_council","ward_number":22,"ward_name":null,"year_delimited":null,"source_url":"https://github.com/archiboltmusk/Purulia/blob/7f6ef3cdc195b5ebd6fd6ecac9ad10fabd819af8/purulia_wards.geojson","license":"MIT","country":"IN"},"geometry":{"type":"Polygon","coordinates":[[[86.37632,23.322215],[86.376318,23.322216],[86.375792,23.321464],[86.372183,23.32185],[86.372131,23.321835],[86.371737,23.32172],[86.37086,23.321464],[86.371246,23.322528],[86.371281,23.322624],[86.371123,23.323018],[86.37086,23.323673],[86.370637,23.32365],[86.37041,23.323627],[86.368695,23.323452],[86.367437,23.324239],[86.367408,23.324257],[86.36738,23.324275],[86.367372,23.32428],[86.367378,23.324235],[86.367382,23.324116],[86.367669,23.321935],[86.367669,23.321935],[86.367973,23.321961],[86.367985,23.321906],[86.368033,23.321906],[86.368154,23.321464],[86.370319,23.321298],[86.370819,23.320784],[86.371462,23.320193],[86.371957,23.319613],[86.373326,23.318205],[86.373747,23.318039],[86.372304,23.313289],[86.371221,23.308208],[86.375732,23.311191],[86.381188,23.314495],[86.380503,23.315891],[86.377656,23.321519],[86.376664,23.322057],[86.37632,23.322215]]]}}]}
